TIGRISAT                
1 40043U 14033AK  26093.65929571  .00003783  00000+0  44220-3 0  9991
2 40043  97.7721 245.4356 0048536 320.3151  39.4516 14.84855099634561
AEROCUBE 6A             
1 40045U 14033AM  26094.19648508  .00013008  00000+0  11109-2 0  9991
2 40045  97.7156 262.0039 0038063 262.4352  97.2546 14.97239162635546
AEROCUBE 6B             
1 40046U 14033AN  26094.26957984  .00013924  00000+0  11475-2 0  9994
2 40046  97.7137 261.7166 0036345 252.6187 107.1060 14.98645730635681
CANX-4                  
1 40055U 14034C   26094.11292958  .00001836  00000+0  24337-3 0  9993
2 40055  98.3231 326.6702 0011556 247.4361 112.5628 14.81130403633566
CANX-5                  
1 40056U 14034D   26094.17977040  .00001792  00000+0  23762-3 0  9994
2 40056  98.3232 326.7788 0011569 247.4354 112.5633 14.81147246624388
UKUBE-1                 
1 40074U 14037F   26094.22728868  .00016609  00000+0  95992-3 0  9992
2 40074  98.4247  89.8032 0003155  76.6274 283.5305 15.12381447637375
BRITE-PL2 (HEWELIUSZ)   
1 40119U 14049B   26094.25356084  .00004735  00000+0  44524-3 0  9997
2 40119  97.9006 205.7361 0013835   1.3674 358.7582 14.94321467630405
AEROCUBE 5C             
1 40965U 15058B   26094.26779320  .00004242  00000+0  37884-3 0  9994
2 40965  64.7659 132.4722 0129694  92.3205 269.2764 14.91033874354633
AEROCUBE 7              
1 40966U 15058C   26094.27057638  .00006327  00000+0  51190-3 0  9999
2 40966  64.7606 116.2305 0119598  91.2079 270.2739 14.95131042354906
FOX-1A (AO-85)          
1 40967U 15058D   26094.22390213  .00004322  00000+0  39200-3 0  9995
2 40967  64.7745 148.7576 0128318  85.6580 275.9182 14.90539097102547
SINOD-D 1               
1 40968U 15058E   26094.25711580  .00006317  00000+0  51212-3 0  9996
2 40968  64.7737 130.3215 0116789  82.6624 278.7746 14.95299335105601
SNAP-3 ALICE            
1 40970U 15058G   26094.13399098  .00144926  00000+0  26623-2 0  9998
2 40970  64.7566 357.2974 0033326  59.9653 300.4786 15.47890104105381
LMRST-SAT               
1 40971U 15058H   26094.29487313  .00004272  00000+0  38961-3 0  9992
2 40971  64.7749 144.7376 0130311  87.6552 273.9473 14.90169835102547
SNAP-3 EDDIE            
1 40972U 15058J   26094.04894843  .00139464  00000+0  24688-2 0  9998
2 40972  64.7488 348.8182 0034224  64.6047 295.8629 15.48930524107502
PROPCUBE 3              
1 40973U 15058K   26094.24187793  .00005341  00000+0  44768-3 0  9998
2 40973  64.7668 123.4730 0122701  89.3144 272.2027 14.93737060103752
BISONSAT                
1 40974U 15058L   26094.25221395  .00027087  00000+0  13592-2 0  9998
2 40974  64.7611  52.3778 0078695  79.4937 281.5041 15.14529151104412
