[{"OBJECT_NAME":"TIGRISAT","OBJECT_ID":"2014-033AK","EPOCH":"2026-04-03T15:49:23.149344","MEAN_MOTION":14.84855099,"ECCENTRICITY":0.0048536,"INCLINATION":97.7721,"RA_OF_ASC_NODE":245.4356,"ARG_OF_PERICENTER":320.3151,"MEAN_ANOMALY":39.4516,"EPHEMERIS_TYPE":0,"CLASSIFICATION_TYPE":"U","NORAD_CAT_ID":40043,"ELEMENT_SET_NO":999,"REV_AT_EPOCH":63456,"BSTAR":0.0004422,"MEAN_MOTION_DOT":3.783e-5,"MEAN_MOTION_DDOT":0},{"OBJECT_NAME":"AEROCUBE 6A","OBJECT_ID":"2014-033AM","EPOCH":"2026-04-04T04:42:56.310912","MEAN_MOTION":14.97239162,"ECCENTRICITY":0.00380631,"INCLINATION":97.7156,"RA_OF_ASC_NODE":262.0039,"ARG_OF_PERICENTER":262.4352,"MEAN_ANOMALY":97.2546,"EPHEMERIS_TYPE":0,"CLASSIFICATION_TYPE":"U","NORAD_CAT_ID":40045,"ELEMENT_SET_NO":999,"REV_AT_EPOCH":63554,"BSTAR":0.0011108517,"MEAN_MOTION_DOT":0.00013008,"MEAN_MOTION_DDOT":0},{"OBJECT_NAME":"AEROCUBE 6B","OBJECT_ID":"2014-033AN","EPOCH":"2026-04-04T06:28:11.698176","MEAN_MOTION":14.9864573,"ECCENTRICITY":0.00363452,"INCLINATION":97.7137,"RA_OF_ASC_NODE":261.7166,"ARG_OF_PERICENTER":252.6187,"MEAN_ANOMALY":107.106,"EPHEMERIS_TYPE":0,"CLASSIFICATION_TYPE":"U","NORAD_CAT_ID":40046,"ELEMENT_SET_NO":999,"REV_AT_EPOCH":63568,"BSTAR":0.0011475181,"MEAN_MOTION_DOT":0.00013924,"MEAN_MOTION_DDOT":0},{"OBJECT_NAME":"CANX-4","OBJECT_ID":"2014-034C","EPOCH":"2026-04-04T02:42:37.115712","MEAN_MOTION":14.81130403,"ECCENTRICITY":0.00115568,"INCLINATION":98.3231,"RA_OF_ASC_NODE":326.6702,"ARG_OF_PERICENTER":247.4361,"MEAN_ANOMALY":112.5628,"EPHEMERIS_TYPE":0,"CLASSIFICATION_TYPE":"U","NORAD_CAT_ID":40055,"ELEMENT_SET_NO":999,"REV_AT_EPOCH":63356,"BSTAR":0.00024336836,"MEAN_MOTION_DOT":1.836e-5,"MEAN_MOTION_DDOT":0},{"OBJECT_NAME":"CANX-5","OBJECT_ID":"2014-034D","EPOCH":"2026-04-04T04:18:52.162560","MEAN_MOTION":14.81147246,"ECCENTRICITY":0.00115699,"INCLINATION":98.3232,"RA_OF_ASC_NODE":326.7788,"ARG_OF_PERICENTER":247.4354,"MEAN_ANOMALY":112.5633,"EPHEMERIS_TYPE":0,"CLASSIFICATION_TYPE":"U","NORAD_CAT_ID":40056,"ELEMENT_SET_NO":999,"REV_AT_EPOCH":62438,"BSTAR":0.00023762019,"MEAN_MOTION_DOT":1.792e-5,"MEAN_MOTION_DDOT":0},{"OBJECT_NAME":"UKUBE-1","OBJECT_ID":"2014-037F","EPOCH":"2026-04-04T05:27:17.741952","MEAN_MOTION":15.12381447,"ECCENTRICITY":0.00031555,"INCLINATION":98.4247,"RA_OF_ASC_NODE":89.8032,"ARG_OF_PERICENTER":76.6274,"MEAN_ANOMALY":283.5305,"EPHEMERIS_TYPE":0,"CLASSIFICATION_TYPE":"U","NORAD_CAT_ID":40074,"ELEMENT_SET_NO":999,"REV_AT_EPOCH":63737,"BSTAR":0.00095991548,"MEAN_MOTION_DOT":0.00016609,"MEAN_MOTION_DDOT":0},{"OBJECT_NAME":"BRITE-PL2 (HEWELIUSZ)","OBJECT_ID":"2014-049B","EPOCH":"2026-04-04T06:05:07.656576","MEAN_MOTION":14.94321467,"ECCENTRICITY":0.00138359,"INCLINATION":97.9006,"RA_OF_ASC_NODE":205.7361,"ARG_OF_PERICENTER":1.3674,"MEAN_ANOMALY":358.7582,"EPHEMERIS_TYPE":0,"CLASSIFICATION_TYPE":"U","NORAD_CAT_ID":40119,"ELEMENT_SET_NO":999,"REV_AT_EPOCH":63040,"BSTAR":0.00044523983,"MEAN_MOTION_DOT":4.735e-5,"MEAN_MOTION_DDOT":0},{"OBJECT_NAME":"AEROCUBE 5C","OBJECT_ID":"2015-058B","EPOCH":"2026-04-04T06:25:37.332480","MEAN_MOTION":14.91033874,"ECCENTRICITY":0.0129694,"INCLINATION":64.7659,"RA_OF_ASC_NODE":132.4722,"ARG_OF_PERICENTER":92.3205,"MEAN_ANOMALY":269.2764,"EPHEMERIS_TYPE":0,"CLASSIFICATION_TYPE":"U","NORAD_CAT_ID":40965,"ELEMENT_SET_NO":999,"REV_AT_EPOCH":35463,"BSTAR":0.00037884362,"MEAN_MOTION_DOT":4.242e-5,"MEAN_MOTION_DDOT":0},{"OBJECT_NAME":"AEROCUBE 7","OBJECT_ID":"2015-058C","EPOCH":"2026-04-04T06:29:37.799232","MEAN_MOTION":14.95131042,"ECCENTRICITY":0.0119598,"INCLINATION":64.7606,"RA_OF_ASC_NODE":116.2305,"ARG_OF_PERICENTER":91.2079,"MEAN_ANOMALY":270.2739,"EPHEMERIS_TYPE":0,"CLASSIFICATION_TYPE":"U","NORAD_CAT_ID":40966,"ELEMENT_SET_NO":999,"REV_AT_EPOCH":35490,"BSTAR":0.00051190044,"MEAN_MOTION_DOT":6.327e-5,"MEAN_MOTION_DDOT":0},{"OBJECT_NAME":"FOX-1A (AO-85)","OBJECT_ID":"2015-058D","EPOCH":"2026-04-04T05:22:25.144032","MEAN_MOTION":14.90539097,"ECCENTRICITY":0.01283181,"INCLINATION":64.7745,"RA_OF_ASC_NODE":148.7576,"ARG_OF_PERICENTER":85.658,"MEAN_ANOMALY":275.9182,"EPHEMERIS_TYPE":0,"CLASSIFICATION_TYPE":"U","NORAD_CAT_ID":40967,"ELEMENT_SET_NO":999,"REV_AT_EPOCH":10254,"BSTAR":0.00039200049,"MEAN_MOTION_DOT":4.322e-5,"MEAN_MOTION_DDOT":0},{"OBJECT_NAME":"SINOD-D 1","OBJECT_ID":"2015-058E","EPOCH":"2026-04-04T06:10:14.805120","MEAN_MOTION":14.95299335,"ECCENTRICITY":0.01167898,"INCLINATION":64.7737,"RA_OF_ASC_NODE":130.3215,"ARG_OF_PERICENTER":82.6624,"MEAN_ANOMALY":278.7746,"EPHEMERIS_TYPE":0,"CLASSIFICATION_TYPE":"U","NORAD_CAT_ID":40968,"ELEMENT_SET_NO":999,"REV_AT_EPOCH":10560,"BSTAR":0.00051212148,"MEAN_MOTION_DOT":6.317e-5,"MEAN_MOTION_DDOT":0},{"OBJECT_NAME":"SNAP-3 ALICE","OBJECT_ID":"2015-058G","EPOCH":"2026-04-04T03:12:56.820672","MEAN_MOTION":15.47890104,"ECCENTRICITY":0.00333264,"INCLINATION":64.7566,"RA_OF_ASC_NODE":357.2974,"ARG_OF_PERICENTER":59.9653,"MEAN_ANOMALY":300.4786,"EPHEMERIS_TYPE":0,"CLASSIFICATION_TYPE":"U","NORAD_CAT_ID":40970,"ELEMENT_SET_NO":999,"REV_AT_EPOCH":10538,"BSTAR":0.0026623404,"MEAN_MOTION_DOT":0.00144926,"MEAN_MOTION_DDOT":0},{"OBJECT_NAME":"LMRST-SAT","OBJECT_ID":"2015-058H","EPOCH":"2026-04-04T07:04:37.038432","MEAN_MOTION":14.90169835,"ECCENTRICITY":0.01303119,"INCLINATION":64.7749,"RA_OF_ASC_NODE":144.7376,"ARG_OF_PERICENTER":87.6552,"MEAN_ANOMALY":273.9473,"EPHEMERIS_TYPE":0,"CLASSIFICATION_TYPE":"U","NORAD_CAT_ID":40971,"ELEMENT_SET_NO":999,"REV_AT_EPOCH":10254,"BSTAR":0.0003896087,"MEAN_MOTION_DOT":4.272e-5,"MEAN_MOTION_DDOT":0},{"OBJECT_NAME":"SNAP-3 EDDIE","OBJECT_ID":"2015-058J","EPOCH":"2026-04-04T01:10:29.144352","MEAN_MOTION":15.48930524,"ECCENTRICITY":0.0034224,"INCLINATION":64.7488,"RA_OF_ASC_NODE":348.8182,"ARG_OF_PERICENTER":64.6047,"MEAN_ANOMALY":295.8629,"EPHEMERIS_TYPE":0,"CLASSIFICATION_TYPE":"U","NORAD_CAT_ID":40972,"ELEMENT_SET_NO":999,"REV_AT_EPOCH":10750,"BSTAR":0.0024688426,"MEAN_MOTION_DOT":0.00139464,"MEAN_MOTION_DDOT":0},{"OBJECT_NAME":"PROPCUBE 3","OBJECT_ID":"2015-058K","EPOCH":"2026-04-04T05:48:18.253152","MEAN_MOTION":14.9373706,"ECCENTRICITY":0.01227015,"INCLINATION":64.7668,"RA_OF_ASC_NODE":123.473,"ARG_OF_PERICENTER":89.3144,"MEAN_ANOMALY":272.2027,"EPHEMERIS_TYPE":0,"CLASSIFICATION_TYPE":"U","NORAD_CAT_ID":40973,"ELEMENT_SET_NO":999,"REV_AT_EPOCH":10375,"BSTAR":0.00044768426,"MEAN_MOTION_DOT":5.341e-5,"MEAN_MOTION_DDOT":0},{"OBJECT_NAME":"BISONSAT","OBJECT_ID":"2015-058L","EPOCH":"2026-04-04T06:03:11.285280","MEAN_MOTION":15.14529151,"ECCENTRICITY":0.00786955,"INCLINATION":64.7611,"RA_OF_ASC_NODE":52.3778,"ARG_OF_PERICENTER":79.4937,"MEAN_ANOMALY":281.5041,"EPHEMERIS_TYPE":0,"CLASSIFICATION_TYPE":"U","NORAD_CAT_ID":40974,"ELEMENT_SET_NO":999,"REV_AT_EPOCH":10441,"BSTAR":0.0013592197,"MEAN_MOTION_DOT":0.00027087,"MEAN_MOTION_DDOT":0}]
